[{
    "id": 1703270,
    "postcode": "SL9 9AH",
    "latitude": 51.605149,
    "longitude": -0.55719
  },
{
    "id": 1811148,
    "postcode": "SL0 0BP",
    "latitude": 51.5402008205,
    "longitude": -0.5182053155
  },
{
    "id": 1811149,
    "postcode": "SL0 1AF",
    "latitude": 51.5082718265,
    "longitude": -0.58461855
  },
{
    "id": 1811150,
    "postcode": "SL0 1AJ",
    "latitude": 51.5082718265,
    "longitude": -0.58461855
  },
{
    "id": 1811151,
    "postcode": "SL0 9BE",
    "latitude": 51.5179259936,
    "longitude": -0.5067493602
  },
{
    "id": 1811152,
    "postcode": "SL0 9BQ",
    "latitude": 51.503666,
    "longitude": -0.5076352112
  },
{
    "id": 1811153,
    "postcode": "SL1 0AA",
    "latitude": 51.5082718265,
    "longitude": -0.58461855
  },
{
    "id": 1811154,
    "postcode": "SL1 0AE",
    "latitude": 51.5082718265,
    "longitude": -0.58461855
  },
{
    "id": 1811155,
    "postcode": "SL1 0AL",
    "latitude": 51.5082718265,
    "longitude": -0.58461855
  },
{
    "id": 1811156,
    "postcode": "SL1 0AP",
    "latitude": 51.5082718265,
    "longitude": -0.58461855
  },
{
    "id": 1811157,
    "postcode": "SL1 0AT",
    "latitude": 51.5082718265,
    "longitude": -0.58461855
  },
{
    "id": 1811158,
    "postcode": "SL1 0AU",
    "latitude": 51.5082718265,
    "longitude": -0.58461855
  },
{
    "id": 1811159,
    "postcode": "SL1 0AW",
    "latitude": 51.5082718265,
    "longitude": -0.58461855
  },
{
    "id": 1811160,
    "postcode": "SL1 0JA",
    "latitude": 51.5082718265,
    "longitude": -0.58461855
  },
{
    "id": 1811161,
    "postcode": "SL1 0JU",
    "latitude": 51.5082718265,
    "longitude": -0.58461855
  },
{
    "id": 1811162,
    "postcode": "SL1 0PX",
    "latitude": 51.5082718265,
    "longitude": -0.58461855
  },
{
    "id": 1811163,
    "postcode": "SL1 0QA",
    "latitude": 51.5082718265,
    "longitude": -0.58461855
  },
{
    "id": 1811164,
    "postcode": "SL1 0QF",
    "latitude": 51.5082718265,
    "longitude": -0.58461855
  },
{
    "id": 1811165,
    "postcode": "SL1 0QP",
    "latitude": 51.5082718265,
    "longitude": -0.58461855
  },
{
    "id": 1811167,
    "postcode": "SL1 0QZ",
    "latitude": 51.5082718265,
    "longitude": -0.58461855
  },
{
    "id": 1811168,
    "postcode": "SL1 0RD",
    "latitude": 51.5082718265,
    "longitude": -0.58461855
  },
{
    "id": 1811169,
    "postcode": "SL1 0RJ",
    "latitude": 51.5082718265,
    "longitude": -0.58461855
  },
{
    "id": 1811171,
    "postcode": "SL1 0RR",
    "latitude": 51.5082718265,
    "longitude": -0.58461855
  },
{
    "id": 1811172,
    "postcode": "SL1 0RU",
    "latitude": 51.5082718265,
    "longitude": -0.58461855
  },
{
    "id": 1811173,
    "postcode": "SL1 0RW",
    "latitude": 51.5082718265,
    "longitude": -0.58461855
  },
{
    "id": 1811174,
    "postcode": "SL1 0TH",
    "latitude": 51.5082718265,
    "longitude": -0.58461855
  },
{
    "id": 1811175,
    "postcode": "SL1 0TJ",
    "latitude": 51.5082718265,
    "longitude": -0.58461855
  },
{
    "id": 1811176,
    "postcode": "SL1 0TP",
    "latitude": 51.5082718265,
    "longitude": -0.58461855
  },
{
    "id": 1811177,
    "postcode": "SL1 0TR",
    "latitude": 51.5082718265,
    "longitude": -0.58461855
  },
{
    "id": 1811178,
    "postcode": "SL1 0TT",
    "latitude": 51.5082718265,
    "longitude": -0.58461855
  },
{
    "id": 1811179,
    "postcode": "SL1 0TU",
    "latitude": 51.5082718265,
    "longitude": -0.58461855
  },
{
    "id": 1811180,
    "postcode": "SL1 0TW",
    "latitude": 51.5082718265,
    "longitude": -0.58461855
  },
{
    "id": 1811181,
    "postcode": "SL1 0TX",
    "latitude": 51.5082718265,
    "longitude": -0.58461855
  },
{
    "id": 1811182,
    "postcode": "SL1 0TY",
    "latitude": 51.5082718265,
    "longitude": -0.58461855
  },
{
    "id": 1811183,
    "postcode": "SL1 0TZ",
    "latitude": 51.5082718265,
    "longitude": -0.58461855
  },
{
    "id": 1811184,
    "postcode": "SL1 0UD",
    "latitude": 51.5082718265,
    "longitude": -0.58461855
  },
{
    "id": 1811185,
    "postcode": "SL1 0UE",
    "latitude": 51.5082718265,
    "longitude": -0.58461855
  },
{
    "id": 1811186,
    "postcode": "SL1 0UF",
    "latitude": 51.5082718265,
    "longitude": -0.58461855
  },
{
    "id": 1811187,
    "postcode": "SL1 0UH",
    "latitude": 51.5082718265,
    "longitude": -0.58461855
  },
{
    "id": 1811188,
    "postcode": "SL1 0UN",
    "latitude": 51.5082718265,
    "longitude": -0.58461855
  },
{
    "id": 1811189,
    "postcode": "SL1 0UP",
    "latitude": 51.5082718265,
    "longitude": -0.58461855
  },
{
    "id": 1811191,
    "postcode": "SL1 0UX",
    "latitude": 51.5082718265,
    "longitude": -0.58461855
  },
{
    "id": 1811192,
    "postcode": "SL1 0WA",
    "latitude": 51.5082718265,
    "longitude": -0.58461855
  },
{
    "id": 1811193,
    "postcode": "SL1 0WB",
    "latitude": 51.5082718265,
    "longitude": -0.58461855
  },
{
    "id": 1811194,
    "postcode": "SL1 0WD",
    "latitude": 51.5082718265,
    "longitude": -0.58461855
  },
{
    "id": 1811195,
    "postcode": "SL1 0WE",
    "latitude": 51.5082718265,
    "longitude": -0.58461855
  },
{
    "id": 1811196,
    "postcode": "SL1 0WH",
    "latitude": 51.5082718265,
    "longitude": -0.58461855
  },
{
    "id": 1811197,
    "postcode": "SL1 0WL",
    "latitude": 51.5082718265,
    "longitude": -0.58461855
  },
{
    "id": 1811198,
    "postcode": "SL1 0WN",
    "latitude": 51.5082718265,
    "longitude": -0.58461855
  },
{
    "id": 1811199,
    "postcode": "SL1 0WP",
    "latitude": 51.5082718265,
    "longitude": -0.58461855
  },
{
    "id": 1811200,
    "postcode": "SL1 0WR",
    "latitude": 51.5082718265,
    "longitude": -0.58461855
  },
{
    "id": 1811201,
    "postcode": "SL1 0WS",
    "latitude": 51.5082718265,
    "longitude": -0.58461855
  },
{
    "id": 1811202,
    "postcode": "SL1 0WU",
    "latitude": 51.5082718265,
    "longitude": -0.58461855
  },
{
    "id": 1811203,
    "postcode": "SL1 0WW",
    "latitude": 51.5082718265,
    "longitude": -0.58461855
  },
{
    "id": 1811204,
    "postcode": "SL1 0WY",
    "latitude": 51.5082718265,
    "longitude": -0.58461855
  },
{
    "id": 1811205,
    "postcode": "SL1 0XA",
    "latitude": 51.5082718265,
    "longitude": -0.58461855
  },
{
    "id": 1811206,
    "postcode": "SL1 0XB",
    "latitude": 51.5082718265,
    "longitude": -0.58461855
  },
{
    "id": 1811208,
    "postcode": "SL1 0XH",
    "latitude": 51.5082718265,
    "longitude": -0.58461855
  },
{
    "id": 1811209,
    "postcode": "SL1 0XP",
    "latitude": 51.5082718265,
    "longitude": -0.58461855
  },
{
    "id": 1811210,
    "postcode": "SL1 0XQ",
    "latitude": 51.5082718265,
    "longitude": -0.58461855
  },
{
    "id": 1811211,
    "postcode": "SL1 0XS",
    "latitude": 51.5082718265,
    "longitude": -0.58461855
  },
{
    "id": 1811212,
    "postcode": "SL1 0XT",
    "latitude": 51.5082718265,
    "longitude": -0.58461855
  },
{
    "id": 1811213,
    "postcode": "SL1 0XU",
    "latitude": 51.5082718265,
    "longitude": -0.58461855
  },
{
    "id": 1811217,
    "postcode": "SL1 0YB",
    "latitude": 51.5082718265,
    "longitude": -0.58461855
  },
{
    "id": 1811218,
    "postcode": "SL1 0YG",
    "latitude": 51.5082718265,
    "longitude": -0.58461855
  },
{
    "id": 1811219,
    "postcode": "SL1 0YJ",
    "latitude": 51.5082718265,
    "longitude": -0.58461855
  },
{
    "id": 1811220,
    "postcode": "SL1 0YN",
    "latitude": 51.5082718265,
    "longitude": -0.58461855
  },
{
    "id": 1811224,
    "postcode": "SL1 0YS",
    "latitude": 51.5082718265,
    "longitude": -0.58461855
  },
{
    "id": 1811225,
    "postcode": "SL1 0YU",
    "latitude": 51.5082718265,
    "longitude": -0.58461855
  },
{
    "id": 1811226,
    "postcode": "SL1 0YW",
    "latitude": 51.5082718265,
    "longitude": -0.58461855
  },
{
    "id": 1811227,
    "postcode": "SL1 0YY",
    "latitude": 51.5082718265,
    "longitude": -0.58461855
  },
{
    "id": 1811229,
    "postcode": "SL1 0ZA",
    "latitude": 51.5082718265,
    "longitude": -0.58461855
  },
{
    "id": 1811230,
    "postcode": "SL1 0ZB",
    "latitude": 51.5082718265,
    "longitude": -0.58461855
  },
{
    "id": 1811233,
    "postcode": "SL1 0ZG",
    "latitude": 51.5082718265,
    "longitude": -0.58461855
  },
{
    "id": 1811234,
    "postcode": "SL1 0ZH",
    "latitude": 51.5082718265,
    "longitude": -0.58461855
  },
{
    "id": 1811235,
    "postcode": "SL1 0ZJ",
    "latitude": 51.5082718265,
    "longitude": -0.58461855
  },
{
    "id": 1811236,
    "postcode": "SL1 0ZL",
    "latitude": 51.5082718265,
    "longitude": -0.58461855
  },
{
    "id": 1811242,
    "postcode": "SL1 0ZT",
    "latitude": 51.5082718265,
    "longitude": -0.58461855
  },
{
    "id": 1811243,
    "postcode": "SL1 0ZU",
    "latitude": 51.5082718265,
    "longitude": -0.58461855
  },
{
    "id": 1811244,
    "postcode": "SL1 0ZW",
    "latitude": 51.5082718265,
    "longitude": -0.58461855
  },
{
    "id": 1811245,
    "postcode": "SL1 0ZX",
    "latitude": 51.5082718265,
    "longitude": -0.58461855
  },
{
    "id": 1811247,
    "postcode": "SL1 0ZZ",
    "latitude": 51.5082718265,
    "longitude": -0.58461855
  },
{
    "id": 1811248,
    "postcode": "SL1 1AG",
    "latitude": 51.510741,
    "longitude": -0.599342
  },
{
    "id": 1811249,
    "postcode": "SL1 1AN",
    "latitude": 51.5077961601,
    "longitude": -0.5765206803
  },
{
    "id": 1811250,
    "postcode": "SL1 1AQ",
    "latitude": 51.5074623692,
    "longitude": -0.5853496954
  },
{
    "id": 1811251,
    "postcode": "SL1 1AW",
    "latitude": 51.5093740354,
    "longitude": -0.5895270598
  },
{
    "id": 1811252,
    "postcode": "SL1 1AY",
    "latitude": 51.5081052684,
    "longitude": -0.5939467808
  },
{
    "id": 1811253,
    "postcode": "SL1 1FE",
    "latitude": 51.5081092395,
    "longitude": -0.59399
  },
{
    "id": 1811254,
    "postcode": "SL1 2EF",
    "latitude": 51.506400224,
    "longitude": -0.5979905924
  },
{
    "id": 1811255,
    "postcode": "SL1 2ES",
    "latitude": 51.5050972471,
    "longitude": -0.6086353983
  },
{
    "id": 1811256,
    "postcode": "SL1 3QD",
    "latitude": 51.5136355381,
    "longitude": -0.5962120627
  },
{
    "id": 1811257,
    "postcode": "SL1 4TQ",
    "latitude": 51.5237685117,
    "longitude": -0.618097
  },
{
    "id": 1811258,
    "postcode": "SL1 4WS",
    "latitude": 51.5247848951,
    "longitude": -0.616454
  },
{
    "id": 1811259,
    "postcode": "SL1 4ZA",
    "latitude": 51.5251383283,
    "longitude": -0.616053868
  },
{
    "id": 1811260,
    "postcode": "SL1 5AZ",
    "latitude": 51.5125980353,
    "longitude": -0.6324589812
  },
{
    "id": 1811261,
    "postcode": "SL1 5FA",
    "latitude": 51.5097904892,
    "longitude": -0.6361455765
  },
{
    "id": 1811262,
    "postcode": "SL1 5FL",
    "latitude": 51.5109455338,
    "longitude": -0.6357220043
  },
{
    "id": 1811263,
    "postcode": "SL1 5FP",
    "latitude": 51.5096601215,
    "longitude": -0.6357603957
  },
{
    "id": 1811264,
    "postcode": "SL1 5FQ",
    "latitude": 51.5089515488,
    "longitude": -0.6343693877
  },
{
    "id": 1811265,
    "postcode": "SL1 5FR",
    "latitude": 51.5168002072,
    "longitude": -0.6365703851
  },
{
    "id": 1811266,
    "postcode": "SL1 5FS",
    "latitude": 51.5164795663,
    "longitude": -0.6360611162
  },
{
    "id": 1811267,
    "postcode": "SL1 5FT",
    "latitude": 51.5170323535,
    "longitude": -0.6356554701
  },
{
    "id": 1811268,
    "postcode": "SL1 5FU",
    "latitude": 51.5088191621,
    "longitude": -0.6338113611
  },
{
    "id": 1811269,
    "postcode": "SL1 5FW",
    "latitude": 51.508037197,
    "longitude": -0.6346128662
  },
{
    "id": 1811270,
    "postcode": "SL1 5FX",
    "latitude": 51.5082478992,
    "longitude": -0.6341742782
  },
{
    "id": 1811271,
    "postcode": "SL1 5FY",
    "latitude": 51.5153438101,
    "longitude": -0.6389197707
  },
{
    "id": 1811272,
    "postcode": "SL1 5FZ",
    "latitude": 51.5092927208,
    "longitude": -0.6335522278
  },
{
    "id": 1811273,
    "postcode": "SL1 5NY",
    "latitude": 51.5197318986,
    "longitude": -0.6505934579
  },
{
    "id": 1811274,
    "postcode": "SL1 6FA",
    "latitude": 51.5264043951,
    "longitude": -0.6608329706
  },
{
    "id": 1811275,
    "postcode": "SL1 7DW",
    "latitude": 51.5308196361,
    "longitude": -0.6545618914
  },
{
    "id": 1811276,
    "postcode": "SL1 8BF",
    "latitude": 51.5403074539,
    "longitude": -0.6578149914
  },
{
    "id": 1811277,
    "postcode": "SL1 8FA",
    "latitude": 51.5373252138,
    "longitude": -0.6612334554
  },
{
    "id": 1811278,
    "postcode": "SL1 8FB",
    "latitude": 51.541811,
    "longitude": -0.658088
  },
{
    "id": 1811279,
    "postcode": "SL1 9DR",
    "latitude": 51.5082718265,
    "longitude": -0.58461855
  },
{
    "id": 1811280,
    "postcode": "SL2 1BG",
    "latitude": 51.5262671032,
    "longitude": -0.6088551981
  },
{
    "id": 1811281,
    "postcode": "SL2 1BW",
    "latitude": 51.5312091765,
    "longitude": -0.6100741857
  },
{
    "id": 1811282,
    "postcode": "SL2 2AY",
    "latitude": 51.5314015622,
    "longitude": -0.633193
  },
{
    "id": 1811283,
    "postcode": "SL2 2BF",
    "latitude": 51.5317898453,
    "longitude": -0.6311631774
  },
{
    "id": 1811284,
    "postcode": "SL2 2DJ",
    "latitude": 51.5359994828,
    "longitude": -0.6312820267
  },
{
    "id": 1811285,
    "postcode": "SL2 2DL",
    "latitude": 51.5310286348,
    "longitude": -0.634516303
  },
{
    "id": 1811286,
    "postcode": "SL2 2DN",
    "latitude": 51.5320363217,
    "longitude": -0.633419
  },
{
    "id": 1811287,
    "postcode": "SL2 2EZ",
    "latitude": 51.5360104894,
    "longitude": -0.631454718
  },
{
    "id": 1811288,
    "postcode": "SL2 2JB",
    "latitude": 51.531900789,
    "longitude": -0.6352831537
  },
{
    "id": 1811289,
    "postcode": "SL2 2JF",
    "latitude": 51.5310237694,
    "longitude": -0.6340983594
  },
{
    "id": 1811290,
    "postcode": "SL2 2JG",
    "latitude": 51.5317317076,
    "longitude": -0.6338897515
  },
{
    "id": 1811291,
    "postcode": "SL2 2LU",
    "latitude": 51.5316949223,
    "longitude": -0.6322761395
  },
{
    "id": 1811292,
    "postcode": "SL2 2QG",
    "latitude": 51.531994,
    "longitude": -0.631791
  },
{
    "id": 1811293,
    "postcode": "SL2 2QH",
    "latitude": 51.5312276302,
    "longitude": -0.6353897825
  },
{
    "id": 1811294,
    "postcode": "SL2 3AG",
    "latitude": 51.567359295,
    "longitude": -0.6042108138
  },
{
    "id": 1811295,
    "postcode": "SL2 4FB",
    "latitude": 51.5469928039,
    "longitude": -0.5817445004
  },
{
    "id": 1811296,
    "postcode": "SL2 5FF",
    "latitude": 51.5164397613,
    "longitude": -0.5819009015
  },
{
    "id": 1811297,
    "postcode": "SL2 5FQ",
    "latitude": 51.5129228793,
    "longitude": -0.5907721201
  },
{
    "id": 1811298,
    "postcode": "SL2 5GE",
    "latitude": 51.5128786365,
    "longitude": -0.591464
  },
{
    "id": 1811299,
    "postcode": "SL2 5GF",
    "latitude": 51.5128786365,
    "longitude": -0.591464
  },
{
    "id": 1811300,
    "postcode": "SL2 5GN",
    "latitude": 51.5129228793,
    "longitude": -0.5907721201
  },
{
    "id": 1811301,
    "postcode": "SL2 5GQ",
    "latitude": 51.5125757685,
    "longitude": -0.590495
  },
{
    "id": 1811302,
    "postcode": "SL2 5GW",
    "latitude": 51.5125757685,
    "longitude": -0.590495
  },
{
    "id": 1811303,
    "postcode": "SL2 5LY",
    "latitude": 51.5221985617,
    "longitude": -0.5725834665
  },
{
    "id": 1811304,
    "postcode": "SL2 5LZ",
    "latitude": 51.5221559432,
    "longitude": -0.5720370612
  },
{
    "id": 1811305,
    "postcode": "SL2 5NQ",
    "latitude": 51.5219935762,
    "longitude": -0.5727340161
  },
{
    "id": 1811306,
    "postcode": "SL2 5PE",
    "latitude": 51.5131814778,
    "longitude": -0.594165
  },
{
    "id": 1811307,
    "postcode": "SL2 5PF",
    "latitude": 51.5131814778,
    "longitude": -0.594165
  },
{
    "id": 1811308,
    "postcode": "SL3 0FF",
    "latitude": 51.47773,
    "longitude": -0.517336
  },
{
    "id": 1811309,
    "postcode": "SL3 3FD",
    "latitude": 51.5082718265,
    "longitude": -0.58461855
  },
{
    "id": 1811310,
    "postcode": "SL3 3FP",
    "latitude": 51.5082718265,
    "longitude": -0.58461855
  },
{
    "id": 1811311,
    "postcode": "SL3 3FU",
    "latitude": 51.5082718265,
    "longitude": -0.58461855
  },
{
    "id": 1811312,
    "postcode": "SL3 3HA",
    "latitude": 51.5082718265,
    "longitude": -0.58461855
  },
{
    "id": 1811313,
    "postcode": "SL3 3HE",
    "latitude": 51.5082718265,
    "longitude": -0.58461855
  },
{
    "id": 1811314,
    "postcode": "SL3 3HF",
    "latitude": 51.5082718265,
    "longitude": -0.58461855
  },
{
    "id": 1811315,
    "postcode": "SL3 3HG",
    "latitude": 51.5082718265,
    "longitude": -0.58461855
  },
{
    "id": 1811317,
    "postcode": "SL3 3HN",
    "latitude": 51.5082718265,
    "longitude": -0.58461855
  },
{
    "id": 1811319,
    "postcode": "SL3 3HQ",
    "latitude": 51.5082718265,
    "longitude": -0.58461855
  },
{
    "id": 1811320,
    "postcode": "SL3 3HT",
    "latitude": 51.5082718265,
    "longitude": -0.58461855
  },
{
    "id": 1811321,
    "postcode": "SL3 7DJ",
    "latitude": 51.5093457801,
    "longitude": -0.5760256766
  },
{
    "id": 1811322,
    "postcode": "SL3 7DR",
    "latitude": 51.5093019881,
    "longitude": -0.5768628268
  },
{
    "id": 1811323,
    "postcode": "SL3 7DS",
    "latitude": 51.5095204312,
    "longitude": -0.5741180912
  },
{
    "id": 1811324,
    "postcode": "SL3 7DT",
    "latitude": 51.5096190067,
    "longitude": -0.575456
  },
{
    "id": 1811325,
    "postcode": "SL3 7FS",
    "latitude": 51.5098148996,
    "longitude": -0.561717
  },
{
    "id": 1811326,
    "postcode": "SL3 7FT",
    "latitude": 51.5095556432,
    "longitude": -0.561536906
  },
{
    "id": 1811327,
    "postcode": "SL3 7FU",
    "latitude": 51.5093709616,
    "longitude": -0.561963
  },
{
    "id": 1811328,
    "postcode": "SL3 7FW",
    "latitude": 51.5092490951,
    "longitude": -0.559861
  },
{
    "id": 1811329,
    "postcode": "SL3 7FZ",
    "latitude": 51.4977330222,
    "longitude": -0.570695
  },
{
    "id": 1811330,
    "postcode": "SL3 7GY",
    "latitude": 51.497548,
    "longitude": -0.569464
  },
{
    "id": 1811331,
    "postcode": "SL3 7GZ",
    "latitude": 51.4973307051,
    "longitude": -0.5692401664
  },
{
    "id": 1811332,
    "postcode": "SL3 7HL",
    "latitude": 51.4967739843,
    "longitude": -0.5678313882
  },
{
    "id": 1811333,
    "postcode": "SL3 7PZ",
    "latitude": 51.5022790821,
    "longitude": -0.5872679442
  },
{
    "id": 1811334,
    "postcode": "SL3 7QE",
    "latitude": 51.497258,
    "longitude": -0.569977
  },
{
    "id": 1811335,
    "postcode": "SL3 7RQ",
    "latitude": 51.4976034572,
    "longitude": -0.5709603953
  },
{
    "id": 1811336,
    "postcode": "SL3 7SX",
    "latitude": 51.4969886777,
    "longitude": -0.5714262126
  },
{
    "id": 1811337,
    "postcode": "SL3 7UR",
    "latitude": 51.4971616772,
    "longitude": -0.5693895212
  },
{
    "id": 1811338,
    "postcode": "SL3 7US",
    "latitude": 51.4971616772,
    "longitude": -0.5693895212
  },
{
    "id": 1811339,
    "postcode": "SL3 7UU",
    "latitude": 51.4970319709,
    "longitude": -0.5690766448
  },
{
    "id": 1811340,
    "postcode": "SL3 7UW",
    "latitude": 51.503967,
    "longitude": -0.581207
  },
{
    "id": 1811341,
    "postcode": "SL3 8BZ",
    "latitude": 51.498987744,
    "longitude": -0.5445957739
  },
{
    "id": 1811342,
    "postcode": "SL3 8FG",
    "latitude": 51.490962006,
    "longitude": -0.5341056919
  },
{
    "id": 1811343,
    "postcode": "SL3 8GW",
    "latitude": 51.5041477123,
    "longitude": -0.5444746265
  },
{
    "id": 1811344,
    "postcode": "SL3 9JF",
    "latitude": 51.4862791993,
    "longitude": -0.5751311589
  },
{
    "id": 1811345,
    "postcode": "SL4 1AE",
    "latitude": 51.4859027401,
    "longitude": -0.6074193111
  },
{
    "id": 1811346,
    "postcode": "SL4 1AF",
    "latitude": 51.4814700721,
    "longitude": -0.6097289068
  },
{
    "id": 1811347,
    "postcode": "SL4 1BE",
    "latitude": 51.4804842051,
    "longitude": -0.6062162465
  },
{
    "id": 1811348,
    "postcode": "SL4 2BF",
    "latitude": 51.4568431366,
    "longitude": -0.5769546292
  },
{
    "id": 1811349,
    "postcode": "SL4 2FA",
    "latitude": 51.443357,
    "longitude": -0.665911
  },
{
    "id": 1811350,
    "postcode": "SL4 2FD",
    "latitude": 51.4606342199,
    "longitude": -0.5855743407
  },
{
    "id": 1811351,
    "postcode": "SL4 2ST",
    "latitude": 51.457730186,
    "longitude": -0.581549
  },
{
    "id": 1811352,
    "postcode": "SL4 3FA",
    "latitude": 51.4720640804,
    "longitude": -0.6150254282
  },
{
    "id": 1811353,
    "postcode": "SL4 3FH",
    "latitude": 51.4783086259,
    "longitude": -0.6146059104
  },
{
    "id": 1811354,
    "postcode": "SL4 3FJ",
    "latitude": 51.4769815397,
    "longitude": -0.6164460932
  },
{
    "id": 1811355,
    "postcode": "SL4 3FP",
    "latitude": 51.476537,
    "longitude": -0.608626
  },
{
    "id": 1811356,
    "postcode": "SL4 4BD",
    "latitude": 51.447811,
    "longitude": -0.670976
  },
{
    "id": 1811358,
    "postcode": "SL4 4GE",
    "latitude": 51.4753871252,
    "longitude": -0.6540621344
  },
{
    "id": 1811359,
    "postcode": "SL4 4RN",
    "latitude": 51.4751256543,
    "longitude": -0.6477485761
  },
{
    "id": 1811360,
    "postcode": "SL4 5FF",
    "latitude": 51.4795462456,
    "longitude": -0.6296314852
  },
{
    "id": 1811361,
    "postcode": "SL4 5FN",
    "latitude": 51.478859,
    "longitude": -0.631697
  },
{
    "id": 1811362,
    "postcode": "SL4 5FQ",
    "latitude": 51.4787818631,
    "longitude": -0.6311664323
  },
{
    "id": 1811363,
    "postcode": "SL4 5FW",
    "latitude": 51.4825566495,
    "longitude": -0.625395
  },
{
    "id": 1811364,
    "postcode": "SL4 5FY",
    "latitude": 51.4837035044,
    "longitude": -0.6214417971
  },
{
    "id": 1811365,
    "postcode": "SL4 5NZ",
    "latitude": 51.47970272,
    "longitude": -0.6368847362
  },
{
    "id": 1811366,
    "postcode": "SL4 5PA",
    "latitude": 51.4789834368,
    "longitude": -0.6368917765
  },
{
    "id": 1811367,
    "postcode": "SL4 6FB",
    "latitude": 51.4858558286,
    "longitude": -0.61003
  },
{
    "id": 1811368,
    "postcode": "SL4 6FF",
    "latitude": 51.490931,
    "longitude": -0.6092364395
  },
{
    "id": 1811369,
    "postcode": "SL4 6FG",
    "latitude": 51.4910318022,
    "longitude": -0.6092364395
  },
{
    "id": 1811370,
    "postcode": "SL4 6FH",
    "latitude": 51.491313,
    "longitude": -0.6096411622
  },
{
    "id": 1811371,
    "postcode": "SL4 6HE",
    "latitude": 51.4927537421,
    "longitude": -0.6149315662
  },
{
    "id": 1811372,
    "postcode": "SL4 6LP",
    "latitude": 51.4977013753,
    "longitude": -0.6389122613
  },
{
    "id": 1811373,
    "postcode": "SL4 9BQ",
    "latitude": 51.4811633117,
    "longitude": -0.6104006875
  },
{
    "id": 1811374,
    "postcode": "SL4 9BR",
    "latitude": 51.4811633117,
    "longitude": -0.6104006875
  },
{
    "id": 1811375,
    "postcode": "SL4 9BW",
    "latitude": 51.4811633117,
    "longitude": -0.6104006875
  },
{
    "id": 1811376,
    "postcode": "SL4 9BZ",
    "latitude": 51.4811633117,
    "longitude": -0.6104006875
  },
{
    "id": 1811378,
    "postcode": "SL4 9DG",
    "latitude": 51.4811633117,
    "longitude": -0.6104006875
  },
{
    "id": 1811379,
    "postcode": "SL4 9DH",
    "latitude": 51.4811633117,
    "longitude": -0.6104006875
  },
{
    "id": 1811380,
    "postcode": "SL4 9DL",
    "latitude": 51.4811633117,
    "longitude": -0.6104006875
  },
{
    "id": 1811381,
    "postcode": "SL4 9DN",
    "latitude": 51.4811633117,
    "longitude": -0.6104006875
  },
{
    "id": 1811384,
    "postcode": "SL4 9DW",
    "latitude": 51.4811633117,
    "longitude": -0.6104006875
  },
{
    "id": 1811385,
    "postcode": "SL4 9DX",
    "latitude": 51.4811633117,
    "longitude": -0.6104006875
  },
{
    "id": 1811386,
    "postcode": "SL4 9DZ",
    "latitude": 51.4811633117,
    "longitude": -0.6104006875
  },
{
    "id": 1811387,
    "postcode": "SL4 9EA",
    "latitude": 51.4811633117,
    "longitude": -0.6104006875
  },
{
    "id": 1811388,
    "postcode": "SL4 9EB",
    "latitude": 51.4811633117,
    "longitude": -0.6104006875
  },
{
    "id": 1811390,
    "postcode": "SL5 0FG",
    "latitude": 51.398394,
    "longitude": -0.646878
  },
{
    "id": 1811391,
    "postcode": "SL5 5AZ",
    "latitude": 51.4017884967,
    "longitude": -0.6534344754
  },
{
    "id": 1811392,
    "postcode": "SL5 5BA",
    "latitude": 51.4017884967,
    "longitude": -0.6534344754
  },
{
    "id": 1811393,
    "postcode": "SL5 5BB",
    "latitude": 51.4017884967,
    "longitude": -0.6534344754
  },
{
    "id": 1811394,
    "postcode": "SL5 5BE",
    "latitude": 51.4017884967,
    "longitude": -0.6534344754
  },
{
    "id": 1811395,
    "postcode": "SL5 5BF",
    "latitude": 51.4017884967,
    "longitude": -0.6534344754
  },
{
    "id": 1811397,
    "postcode": "SL5 5BN",
    "latitude": 51.4017884967,
    "longitude": -0.6534344754
  },
{
    "id": 1811398,
    "postcode": "SL5 5BQ",
    "latitude": 51.4017884967,
    "longitude": -0.6534344754
  },
{
    "id": 1811400,
    "postcode": "SL5 5BU",
    "latitude": 51.4017884967,
    "longitude": -0.6534344754
  },
{
    "id": 1811401,
    "postcode": "SL5 5BX",
    "latitude": 51.4017884967,
    "longitude": -0.6534344754
  },
{
    "id": 1811402,
    "postcode": "SL5 5BY",
    "latitude": 51.4017884967,
    "longitude": -0.6534344754
  },
{
    "id": 1811403,
    "postcode": "SL5 5DA",
    "latitude": 51.4017884967,
    "longitude": -0.6534344754
  },
{
    "id": 1811404,
    "postcode": "SL5 5DD",
    "latitude": 51.4017884967,
    "longitude": -0.6534344754
  },
{
    "id": 1811407,
    "postcode": "SL5 5DG",
    "latitude": 51.4017884967,
    "longitude": -0.6534344754
  },
{
    "id": 1811408,
    "postcode": "SL5 7FU",
    "latitude": 51.4093953359,
    "longitude": -0.6620250967
  },
{
    "id": 1811409,
    "postcode": "SL5 7FX",
    "latitude": 51.4097950666,
    "longitude": -0.66676
  },
{
    "id": 1811410,
    "postcode": "SL5 7FY",
    "latitude": 51.411293,
    "longitude": -0.6685090304
  },
{
    "id": 1811411,
    "postcode": "SL5 7GW",
    "latitude": 51.4149631074,
    "longitude": -0.6884229168
  },
{
    "id": 1811412,
    "postcode": "SL5 7GX",
    "latitude": 51.4217444726,
    "longitude": -0.6837271472
  },
{
    "id": 1811413,
    "postcode": "SL5 7PP",
    "latitude": 51.4059138015,
    "longitude": -0.6493451457
  },
{
    "id": 1811414,
    "postcode": "SL5 7SQ",
    "latitude": 51.423059,
    "longitude": -0.68238
  },
{
    "id": 1811415,
    "postcode": "SL5 8FQ",
    "latitude": 51.4173113998,
    "longitude": -0.7087910728
  },
{
    "id": 1811416,
    "postcode": "SL5 8FT",
    "latitude": 51.4261359974,
    "longitude": -0.7033930222
  },
{
    "id": 1811417,
    "postcode": "SL5 8FW",
    "latitude": 51.4164928326,
    "longitude": -0.6957708321
  },
{
    "id": 1811418,
    "postcode": "SL5 8JF",
    "latitude": 51.4221354213,
    "longitude": -0.6897278017
  },
{
    "id": 1811419,
    "postcode": "SL5 9FF",
    "latitude": 51.3877363254,
    "longitude": -0.639
  },
{
    "id": 1811420,
    "postcode": "SL5 9FQ",
    "latitude": 51.3967617054,
    "longitude": -0.6739220754
  },
{
    "id": 1811421,
    "postcode": "SL5 9FW",
    "latitude": 51.3976278061,
    "longitude": -0.6670402402
  },
{
    "id": 1811422,
    "postcode": "SL5 9GF",
    "latitude": 51.3894957513,
    "longitude": -0.6510502105
  },
{
    "id": 1811423,
    "postcode": "SL5 9GG",
    "latitude": 51.3971804118,
    "longitude": -0.6743699593
  },
{
    "id": 1811424,
    "postcode": "SL5 9GJ",
    "latitude": 51.3881555268,
    "longitude": -0.6486751397
  },
{
    "id": 1811425,
    "postcode": "SL5 9SQ",
    "latitude": 51.393615359,
    "longitude": -0.6387115006
  },
{
    "id": 1811426,
    "postcode": "SL6 0JG",
    "latitude": 51.5221007784,
    "longitude": -0.6706309966
  },
{
    "id": 1811427,
    "postcode": "SL6 0NY",
    "latitude": 51.5228387271,
    "longitude": -0.6778454531
  },
{
    "id": 1811428,
    "postcode": "SL6 0XW",
    "latitude": 51.5192822191,
    "longitude": -0.6560693236
  },
{
    "id": 1811429,
    "postcode": "SL6 1AB",
    "latitude": 51.517551,
    "longitude": -0.715961
  },
{
    "id": 1811430,
    "postcode": "SL6 1GU",
    "latitude": 51.518555556,
    "longitude": -0.7147942918
  },
{
    "id": 1811431,
    "postcode": "SL6 1LH",
    "latitude": 51.5216933769,
    "longitude": -0.7131204541
  },
{
    "id": 1811432,
    "postcode": "SL6 1PG",
    "latitude": 51.5219737441,
    "longitude": -0.7256238146
  },
{
    "id": 1811433,
    "postcode": "SL6 1RN",
    "latitude": 51.5214544922,
    "longitude": -0.7159378658
  },
{
    "id": 1811434,
    "postcode": "SL6 1UJ",
    "latitude": 51.518555556,
    "longitude": -0.7147942918
  },
{
    "id": 1811436,
    "postcode": "SL6 1WT",
    "latitude": 51.518555556,
    "longitude": -0.7147942918
  },
{
    "id": 1811437,
    "postcode": "SL6 2FD",
    "latitude": 51.514832225,
    "longitude": -0.7337494882
  },
{
    "id": 1811438,
    "postcode": "SL6 2FH",
    "latitude": 51.5152556525,
    "longitude": -0.733955
  },
{
    "id": 1811439,
    "postcode": "SL6 2GE",
    "latitude": 51.5138192069,
    "longitude": -0.7265575075
  },
{
    "id": 1811440,
    "postcode": "SL6 2JZ",
    "latitude": 51.5121793281,
    "longitude": -0.7287360248
  },
{
    "id": 1811441,
    "postcode": "SL6 2YL",
    "latitude": 51.518555556,
    "longitude": -0.7147942918
  },
{
    "id": 1811442,
    "postcode": "SL6 2ZJ",
    "latitude": 51.518555556,
    "longitude": -0.7147942918
  },
{
    "id": 1811443,
    "postcode": "SL6 3BF",
    "latitude": 51.51434,
    "longitude": -0.779937
  },
{
    "id": 1811444,
    "postcode": "SL6 3BJ",
    "latitude": 51.5022369752,
    "longitude": -0.7626256703
  },
{
    "id": 1811445,
    "postcode": "SL6 3BQ",
    "latitude": 51.514807,
    "longitude": -0.779838
  },
{
    "id": 1811446,
    "postcode": "SL6 3DX",
    "latitude": 51.512962,
    "longitude": -0.777971
  },
{
    "id": 1811447,
    "postcode": "SL6 3EQ",
    "latitude": 51.5065065002,
    "longitude": -0.758372
  },
{
    "id": 1811448,
    "postcode": "SL6 3FD",
    "latitude": 51.498702,
    "longitude": -0.756714
  },
{
    "id": 1811449,
    "postcode": "SL6 3FQ",
    "latitude": 51.502022,
    "longitude": -0.752706449
  },
{
    "id": 1811450,
    "postcode": "SL6 3TZ",
    "latitude": 51.4666384252,
    "longitude": -0.7273960917
  },
{
    "id": 1811451,
    "postcode": "SL6 4FN",
    "latitude": 51.518806792,
    "longitude": -0.7370983721
  },
{
    "id": 1811452,
    "postcode": "SL6 4FQ",
    "latitude": 51.5185853179,
    "longitude": -0.737566
  },
{
    "id": 1811453,
    "postcode": "SL6 4FY",
    "latitude": 51.5189701399,
    "longitude": -0.73614
  },
{
    "id": 1811454,
    "postcode": "SL6 4FZ",
    "latitude": 51.5191147286,
    "longitude": -0.7356341458
  },
{
    "id": 1811455,
    "postcode": "SL6 4YW",
    "latitude": 51.518555556,
    "longitude": -0.7147942918
  },
{
    "id": 1811456,
    "postcode": "SL6 5FB",
    "latitude": 51.5287468576,
    "longitude": -0.7585338945
  },
{
    "id": 1811457,
    "postcode": "SL6 5FE",
    "latitude": 51.5266286766,
    "longitude": -0.7504324228
  },
{
    "id": 1811458,
    "postcode": "SL6 5FG",
    "latitude": 51.5270691205,
    "longitude": -0.7521069769
  },
{
    "id": 1811459,
    "postcode": "SL6 5FJ",
    "latitude": 51.52591,
    "longitude": -0.752297
  },
{
    "id": 1811460,
    "postcode": "SL6 6FQ",
    "latitude": 51.5275743237,
    "longitude": -0.7337997249
  },
{
    "id": 1811461,
    "postcode": "SL6 6FS",
    "latitude": 51.5240712922,
    "longitude": -0.732671
  },
{
    "id": 1811462,
    "postcode": "SL6 6TG",
    "latitude": 51.5294321738,
    "longitude": -0.8125758987
  },
{
    "id": 1811463,
    "postcode": "SL6 7AF",
    "latitude": 51.528104,
    "longitude": -0.726361
  },
{
    "id": 1811464,
    "postcode": "SL6 7GG",
    "latitude": 51.5348134047,
    "longitude": -0.7238956229
  },
{
    "id": 1811465,
    "postcode": "SL6 7RA",
    "latitude": 51.5357582448,
    "longitude": -0.7339187169
  },
{
    "id": 1811466,
    "postcode": "SL6 7RF",
    "latitude": 51.5350612528,
    "longitude": -0.7334910939
  },
{
    "id": 1811467,
    "postcode": "SL6 7RL",
    "latitude": 51.5349721007,
    "longitude": -0.7327294147
  },
{
    "id": 1811468,
    "postcode": "SL6 7RW",
    "latitude": 51.5353637736,
    "longitude": -0.7331943366
  },
{
    "id": 1811469,
    "postcode": "SL6 8AE",
    "latitude": 51.5278412686,
    "longitude": -0.711246094
  },
{
    "id": 1811470,
    "postcode": "SL6 8BG",
    "latitude": 51.5274960736,
    "longitude": -0.7117459712
  },
{
    "id": 1811472,
    "postcode": "SL6 8BW",
    "latitude": 51.5233214976,
    "longitude": -0.7123538491
  },
{
    "id": 1811473,
    "postcode": "SL6 8DE",
    "latitude": 51.5282197625,
    "longitude": -0.7113219039
  },
{
    "id": 1811474,
    "postcode": "SL6 8EL",
    "latitude": 51.5286516151,
    "longitude": -0.7129819705
  },
{
    "id": 1811475,
    "postcode": "SL6 8FA",
    "latitude": 51.527251,
    "longitude": -0.712459
  },
{
    "id": 1811476,
    "postcode": "SL6 8FB",
    "latitude": 51.5278131156,
    "longitude": -0.713843
  },
{
    "id": 1811477,
    "postcode": "SL6 8FF",
    "latitude": 51.5255230061,
    "longitude": -0.720753
  },
{
    "id": 1811478,
    "postcode": "SL6 8FH",
    "latitude": 51.5289119266,
    "longitude": -0.711302364
  },
{
    "id": 1811479,
    "postcode": "SL6 8FP",
    "latitude": 51.5286692197,
    "longitude": -0.7113092158
  },
{
    "id": 1811480,
    "postcode": "SL6 8FQ",
    "latitude": 51.5255230061,
    "longitude": -0.7212579011
  },
{
    "id": 1811481,
    "postcode": "SL6 8FT",
    "latitude": 51.5283972902,
    "longitude": -0.7102933609
  },
{
    "id": 1811482,
    "postcode": "SL6 8FU",
    "latitude": 51.525287,
    "longitude": -0.721971
  },
{
    "id": 1811483,
    "postcode": "SL6 8FY",
    "latitude": 51.5232695907,
    "longitude": -0.7117210831
  },
{
    "id": 1811484,
    "postcode": "SL6 8GD",
    "latitude": 51.5258070466,
    "longitude": -0.720801
  },
{
    "id": 1811485,
    "postcode": "SL6 8GF",
    "latitude": 51.525673,
    "longitude": -0.721888
  },
{
    "id": 1811486,
    "postcode": "SL6 8GG",
    "latitude": 51.525831,
    "longitude": -0.721566
  },
{
    "id": 1811487,
    "postcode": "SL6 8JG",
    "latitude": 51.5284587317,
    "longitude": -0.7126125938
  },
{
    "id": 1811488,
    "postcode": "SL6 8PQ",
    "latitude": 51.52763,
    "longitude": -0.713429
  },
{
    "id": 1811489,
    "postcode": "SL6 8TZ",
    "latitude": 51.523885,
    "longitude": -0.721232
  },
{
    "id": 1811490,
    "postcode": "SL6 8YX",
    "latitude": 51.518555556,
    "longitude": -0.7147942918
  },
{
    "id": 1811491,
    "postcode": "SL6 9FF",
    "latitude": 51.55596,
    "longitude": -0.7312907699
  },
{
    "id": 1811492,
    "postcode": "SL60 1DP",
    "latitude": 51.518555556,
    "longitude": -0.7147942918
  },
{
    "id": 1811493,
    "postcode": "SL60 1DR",
    "latitude": 51.518555556,
    "longitude": -0.7147942918
  },
{
    "id": 1811494,
    "postcode": "SL60 1DT",
    "latitude": 51.518555556,
    "longitude": -0.7147942918
  },
{
    "id": 1811495,
    "postcode": "SL60 1DY",
    "latitude": 51.518555556,
    "longitude": -0.7147942918
  },
{
    "id": 1811496,
    "postcode": "SL60 1EB",
    "latitude": 51.518555556,
    "longitude": -0.7147942918
  },
{
    "id": 1811497,
    "postcode": "SL60 1EH",
    "latitude": 51.518555556,
    "longitude": -0.7147942918
  },
{
    "id": 1811498,
    "postcode": "SL60 1EP",
    "latitude": 51.518555556,
    "longitude": -0.7147942918
  },
{
    "id": 1811499,
    "postcode": "SL60 1ET",
    "latitude": 51.518555556,
    "longitude": -0.7147942918
  },
{
    "id": 1811500,
    "postcode": "SL60 1EZ",
    "latitude": 51.518555556,
    "longitude": -0.7147942918
  },
{
    "id": 1811501,
    "postcode": "SL60 1FL",
    "latitude": 51.518555556,
    "longitude": -0.7147942918
  },
{
    "id": 1811502,
    "postcode": "SL60 1FY",
    "latitude": 51.518555556,
    "longitude": -0.7147942918
  },
{
    "id": 1811503,
    "postcode": "SL60 1GA",
    "latitude": 51.518555556,
    "longitude": -0.7147942918
  },
{
    "id": 1811504,
    "postcode": "SL60 1GB",
    "latitude": 51.518555556,
    "longitude": -0.7147942918
  },
{
    "id": 1811506,
    "postcode": "SL60 1GW",
    "latitude": 51.518555556,
    "longitude": -0.7147942918
  },
{
    "id": 1811507,
    "postcode": "SL60 1GX",
    "latitude": 51.518555556,
    "longitude": -0.7147942918
  },
{
    "id": 1811508,
    "postcode": "SL60 1GY",
    "latitude": 51.518555556,
    "longitude": -0.7147942918
  },
{
    "id": 1811509,
    "postcode": "SL60 1GZ",
    "latitude": 51.518555556,
    "longitude": -0.7147942918
  },
{
    "id": 1811510,
    "postcode": "SL60 1HD",
    "latitude": 51.518555556,
    "longitude": -0.7147942918
  },
{
    "id": 1811511,
    "postcode": "SL60 1HG",
    "latitude": 51.518555556,
    "longitude": -0.7147942918
  },
{
    "id": 1811512,
    "postcode": "SL60 1HJ",
    "latitude": 51.518555556,
    "longitude": -0.7147942918
  },
{
    "id": 1811513,
    "postcode": "SL60 1HL",
    "latitude": 51.518555556,
    "longitude": -0.7147942918
  },
{
    "id": 1811514,
    "postcode": "SL60 1HN",
    "latitude": 51.518555556,
    "longitude": -0.7147942918
  },
{
    "id": 1811515,
    "postcode": "SL60 1HP",
    "latitude": 51.518555556,
    "longitude": -0.7147942918
  },
{
    "id": 1811516,
    "postcode": "SL60 1HQ",
    "latitude": 51.518555556,
    "longitude": -0.7147942918
  },
{
    "id": 1811518,
    "postcode": "SL7 1AL",
    "latitude": 51.5726350149,
    "longitude": -0.7652463892
  },
{
    "id": 1811519,
    "postcode": "SL7 1AP",
    "latitude": 51.5788630801,
    "longitude": -0.7640818377
  },
{
    "id": 1811520,
    "postcode": "SL7 1BD",
    "latitude": 51.5742726726,
    "longitude": -0.7739323985
  },
{
    "id": 1811521,
    "postcode": "SL7 2FH",
    "latitude": 51.5691578556,
    "longitude": -0.7758014263
  },
{
    "id": 1811522,
    "postcode": "SL7 2FR",
    "latitude": 51.5694865469,
    "longitude": -0.7754174487
  },
{
    "id": 1811523,
    "postcode": "SL7 2PH",
    "latitude": 51.5720177223,
    "longitude": -0.7775716111
  },
{
    "id": 1811524,
    "postcode": "SL7 3FG",
    "latitude": 51.5918216358,
    "longitude": -0.7607997387
  },
{
    "id": 1811525,
    "postcode": "SL7 3GZ",
    "latitude": 51.5819304762,
    "longitude": -0.76557
  },
{
    "id": 1811526,
    "postcode": "SL7 9AB",
    "latitude": 51.5707186831,
    "longitude": -0.775166
  },
{
    "id": 1811527,
    "postcode": "SL7 9AL",
    "latitude": 51.5707186831,
    "longitude": -0.775166
  },
{
    "id": 1811529,
    "postcode": "SL7 9BU",
    "latitude": 51.5707186831,
    "longitude": -0.775166
  },
{
    "id": 1811530,
    "postcode": "SL7 9DE",
    "latitude": 51.5707186831,
    "longitude": -0.775166
  },
{
    "id": 1811531,
    "postcode": "SL7 9DG",
    "latitude": 51.5707186831,
    "longitude": -0.775166
  },
{
    "id": 1811532,
    "postcode": "SL7 9DJ",
    "latitude": 51.5707186831,
    "longitude": -0.775166
  },
{
    "id": 1811533,
    "postcode": "SL7 9DL",
    "latitude": 51.5707186831,
    "longitude": -0.775166
  },
{
    "id": 1811534,
    "postcode": "SL7 9DN",
    "latitude": 51.5707186831,
    "longitude": -0.775166
  },
{
    "id": 1811535,
    "postcode": "SL7 9DQ",
    "latitude": 51.5707186831,
    "longitude": -0.775166
  },
{
    "id": 1811536,
    "postcode": "SL7 9DR",
    "latitude": 51.5707186831,
    "longitude": -0.775166
  },
{
    "id": 1811537,
    "postcode": "SL7 9DT",
    "latitude": 51.5707186831,
    "longitude": -0.775166
  },
{
    "id": 1811540,
    "postcode": "SL8 5FF",
    "latitude": 51.576515,
    "longitude": -0.708932
  },
{
    "id": 1811541,
    "postcode": "SL8 5FN",
    "latitude": 51.5769541875,
    "longitude": -0.7087175463
  },
{
    "id": 1811542,
    "postcode": "SL8 5FW",
    "latitude": 51.57165488,
    "longitude": -0.697023
  },
{
    "id": 1811543,
    "postcode": "SL8 5FY",
    "latitude": 51.5752125316,
    "longitude": -0.7089689264
  },
{
    "id": 1811544,
    "postcode": "SL8 5YD",
    "latitude": 51.5752125316,
    "longitude": -0.7089689264
  },
{
    "id": 1811545,
    "postcode": "SL9 0EA",
    "latitude": 51.613994,
    "longitude": -0.52938
  },
{
    "id": 1811546,
    "postcode": "SL9 0EB",
    "latitude": 51.621278,
    "longitude": -0.551145
  },
{
    "id": 1811547,
    "postcode": "SL9 0ED",
    "latitude": 51.620223,
    "longitude": -0.54647
  },
{
    "id": 1811549,
    "postcode": "SL9 1BW",
    "latitude": 51.5871094688,
    "longitude": -0.5540225291
  },
{
    "id": 1811550,
    "postcode": "SL9 1DB",
    "latitude": 51.5871094688,
    "longitude": -0.5540225291
  },
{
    "id": 1811551,
    "postcode": "SL9 1DG",
    "latitude": 51.5871094688,
    "longitude": -0.5540225291
  },
{
    "id": 1811552,
    "postcode": "SL9 1DJ",
    "latitude": 51.5871094688,
    "longitude": -0.5540225291
  },
{
    "id": 1811553,
    "postcode": "SL9 1DL",
    "latitude": 51.5871094688,
    "longitude": -0.5540225291
  },
{
    "id": 1811554,
    "postcode": "SL9 1DP",
    "latitude": 51.5871094688,
    "longitude": -0.5540225291
  },
{
    "id": 1811555,
    "postcode": "SL9 1DT",
    "latitude": 51.5871094688,
    "longitude": -0.5540225291
  },
{
    "id": 1811556,
    "postcode": "SL9 1DX",
    "latitude": 51.5871094688,
    "longitude": -0.5540225291
  },
{
    "id": 1811557,
    "postcode": "SL9 1DY",
    "latitude": 51.5871094688,
    "longitude": -0.5540225291
  },
{
    "id": 1811558,
    "postcode": "SL9 1EA",
    "latitude": 51.5871094688,
    "longitude": -0.5540225291
  },
{
    "id": 1811559,
    "postcode": "SL9 1ED",
    "latitude": 51.5871094688,
    "longitude": -0.5540225291
  },
{
    "id": 1811560,
    "postcode": "SL9 1EE",
    "latitude": 51.5871094688,
    "longitude": -0.5540225291
  },
{
    "id": 1811561,
    "postcode": "SL9 1EF",
    "latitude": 51.5871094688,
    "longitude": -0.5540225291
  },
{
    "id": 1811562,
    "postcode": "SL9 1EG",
    "latitude": 51.5871094688,
    "longitude": -0.5540225291
  },
{
    "id": 1811563,
    "postcode": "SL9 7FD",
    "latitude": 51.5788387434,
    "longitude": -0.5570992784
  },
{
    "id": 1811564,
    "postcode": "SL9 7FE",
    "latitude": 51.5759926754,
    "longitude": -0.5699465748
  },
{
    "id": 1811565,
    "postcode": "SL9 7FH",
    "latitude": 51.5716132697,
    "longitude": -0.5508634849
  },
{
    "id": 1811566,
    "postcode": "SL9 8FF",
    "latitude": 51.6045734062,
    "longitude": -0.5725145619
  },
{
    "id": 1811567,
    "postcode": "SL9 8FG",
    "latitude": 51.5920332635,
    "longitude": -0.5500694569
  },
{
    "id": 1811568,
    "postcode": "SL9 8FN",
    "latitude": 51.5882144227,
    "longitude": -0.55
  },
{
    "id": 1811569,
    "postcode": "SL9 8FQ",
    "latitude": 51.5875319105,
    "longitude": -0.5496353536
  },
{
    "id": 1811570,
    "postcode": "SL9 9FG",
    "latitude": 51.605959,
    "longitude": -0.554261
  },
{
    "id": 1811571,
    "postcode": "SL95 1AA",
    "latitude": 51.5082718265,
    "longitude": -0.58461855
  },
{
    "id": 1811572,
    "postcode": "SL95 1AB",
    "latitude": 51.5082718265,
    "longitude": -0.58461855
  },
{
    "id": 2410966,
    "postcode": "SL4 3DH",
    "latitude": 51.474813,
    "longitude": -0.614913
  },
{
    "id": 2421607,
    "postcode": "SL1 0AF",
    "latitude": 51.508271,
    "longitude": -0.584618
  },
{
    "id": 2421612,
    "postcode": "SL1 0AX",
    "latitude": 51.508271,
    "longitude": -0.584618
  },
{
    "id": 2421613,
    "postcode": "SL1 0AY",
    "latitude": 51.508271,
    "longitude": -0.584618
  },
{
    "id": 2421620,
    "postcode": "SL1 0BH",
    "latitude": 51.508271,
    "longitude": -0.584618
  },
{
    "id": 2421622,
    "postcode": "SL1 0BN",
    "latitude": 51.508271,
    "longitude": -0.584618
  },
{
    "id": 2421623,
    "postcode": "SL1 0BP",
    "latitude": 51.508271,
    "longitude": -0.584618
  },
{
    "id": 2421624,
    "postcode": "SL1 0BQ",
    "latitude": 51.508271,
    "longitude": -0.584618
  },
{
    "id": 2421627,
    "postcode": "SL1 0BX",
    "latitude": 51.508271,
    "longitude": -0.584618
  },
{
    "id": 2421629,
    "postcode": "SL1 0DA",
    "latitude": 51.508271,
    "longitude": -0.584618
  },
{
    "id": 2421630,
    "postcode": "SL1 0DE",
    "latitude": 51.508271,
    "longitude": -0.584618
  },
{
    "id": 2421631,
    "postcode": "SL1 0DF",
    "latitude": 51.508271,
    "longitude": -0.584618
  },
{
    "id": 2423391,
    "postcode": "SL1 4AY",
    "latitude": 51.52307,
    "longitude": -0.627634
  },
{
    "id": 2423415,
    "postcode": "SL1 4ED",
    "latitude": 51.518626,
    "longitude": -0.614435
  },
{
    "id": 2425024,
    "postcode": "SL3 3HU",
    "latitude": 51.508271,
    "longitude": -0.584618
  },
{
    "id": 2426324,
    "postcode": "SL5 5BL",
    "latitude": 51.401787,
    "longitude": -0.653434
  },
{
    "id": 2426804,
    "postcode": "SL6 1FY",
    "latitude": 51.522015,
    "longitude": -0.72039
  },
{
    "id": 2426990,
    "postcode": "SL6 3AQ",
    "latitude": 51.484996,
    "longitude": -0.779554
  },
{
    "id": 2427143,
    "postcode": "SL6 8DJ",
    "latitude": 51.52815,
    "longitude": -0.712463
  },
{
    "id": 2427144,
    "postcode": "SL6 8DQ",
    "latitude": 51.52788,
    "longitude": -0.712384
  },
{
    "id": 2427655,
    "postcode": "SL60 1EQ",
    "latitude": 51.518554,
    "longitude": -0.714794
  },
{
    "id": 2578450,
    "postcode": "SL0 9BG",
    "latitude": 51.5203727546,
    "longitude": -0.5188777225
  },
{
    "id": 2578465,
    "postcode": "SL2 2FD",
    "latitude": 51.5360104894,
    "longitude": -0.631454718
  },
{
    "id": 2578471,
    "postcode": "SL4 9EE",
    "latitude": 51.4811633117,
    "longitude": -0.6104006875
  },
{
    "id": 2578472,
    "postcode": "SL5 5DH",
    "latitude": 51.4017883315,
    "longitude": -0.6534201041
  },
{
    "id": 2578473,
    "postcode": "SL5 5DJ",
    "latitude": 51.4017884967,
    "longitude": -0.6534344754
  },
{
    "id": 2578478,
    "postcode": "SL6 5FF",
    "latitude": 51.5270792393,
    "longitude": -0.7623993402
  },
{
    "id": 2578479,
    "postcode": "SL6 8FZ",
    "latitude": 51.5254408091,
    "longitude": -0.7219665379
  },
{
    "id": 2578480,
    "postcode": "SL6 9FG",
    "latitude": 51.5585768436,
    "longitude": -0.7270101949
  },
{
    "id": 2578481,
    "postcode": "SL60 1HS",
    "latitude": 51.518555556,
    "longitude": -0.7147942918
  },
{
    "id": 2578482,
    "postcode": "SL60 1HT",
    "latitude": 51.5185465668,
    "longitude": -0.7147945448
  },
{
    "id": 2578483,
    "postcode": "SL60 1HU",
    "latitude": 51.5185465668,
    "longitude": -0.7147945448
  },
{
    "id": 2578484,
    "postcode": "SL60 1HW",
    "latitude": 51.5185465668,
    "longitude": -0.7147945448
  },
{
    "id": 2578485,
    "postcode": "SL7 9DX",
    "latitude": 51.5707967266,
    "longitude": -0.7751658108
  },
{
    "id": 2578486,
    "postcode": "SL7 9DY",
    "latitude": 51.5707967266,
    "longitude": -0.7751658108
  },
{
    "id": 2578487,
    "postcode": "SL9 0EH",
    "latitude": 51.6207036298,
    "longitude": -0.5467579794
  },
{
    "id": 2578488,
    "postcode": "SL9 0EQ",
    "latitude": 51.6201112901,
    "longitude": -0.5468491261
  },
{
    "id": 2578489,
    "postcode": "SL9 0FA",
    "latitude": 51.6205840474,
    "longitude": -0.5472673869
  },
{
    "id": 2578490,
    "postcode": "SL9 1EH",
    "latitude": 51.5871094688,
    "longitude": -0.5540225291
  },
{
    "id": 2578491,
    "postcode": "SL9 1EL",
    "latitude": 51.5871094688,
    "longitude": -0.5540225291
  },
{
    "id": 2578492,
    "postcode": "SL9 1EN",
    "latitude": 51.5871094688,
    "longitude": -0.5540225291
  },
{
    "id": 2578493,
    "postcode": "SL9 1EP",
    "latitude": 51.5871094688,
    "longitude": -0.5540225291
  },
{
    "id": 2583451,
    "postcode": "SL0 0AF",
    "latitude": 51.531165,
    "longitude": -0.523372
  },
{
    "id": 2583452,
    "postcode": "SL0 9BU",
    "latitude": 51.514482,
    "longitude": -0.508188
  },
{
    "id": 2583551,
    "postcode": "SL1 0SZ",
    "latitude": 51.510858,
    "longitude": -0.604655
  },
{
    "id": 2583558,
    "postcode": "SL1 1FF",
    "latitude": 51.506984,
    "longitude": -0.585249
  },
{
    "id": 2583606,
    "postcode": "SL1 3FY",
    "latitude": 51.512445,
    "longitude": -0.611121
  },
{
    "id": 2583766,
    "postcode": "SL2 3EE",
    "latitude": 51.545711,
    "longitude": -0.624458
  },
{
    "id": 2583834,
    "postcode": "SL3 0FH",
    "latitude": 51.477302,
    "longitude": -0.513375
  },
{
    "id": 2583835,
    "postcode": "SL3 3HY",
    "latitude": 51.508271,
    "longitude": -0.584618
  },
{
    "id": 2583911,
    "postcode": "SL3 7SZ",
    "latitude": 51.496988,
    "longitude": -0.571426
  },
{
    "id": 2583912,
    "postcode": "SL3 7UG",
    "latitude": 51.502743,
    "longitude": -0.557472
  },
{
    "id": 2583913,
    "postcode": "SL3 7UN",
    "latitude": 51.502743,
    "longitude": -0.557472
  },
{
    "id": 2583914,
    "postcode": "SL3 7UQ",
    "latitude": 51.502743,
    "longitude": -0.557472
  },
{
    "id": 2583965,
    "postcode": "SL4 1AN",
    "latitude": 51.48332,
    "longitude": -0.609615
  },
{
    "id": 2584034,
    "postcode": "SL4 5FZ",
    "latitude": 51.480211,
    "longitude": -0.652912
  },
{
    "id": 2584082,
    "postcode": "SL4 9EF",
    "latitude": 51.481162,
    "longitude": -0.610401
  },
{
    "id": 2584094,
    "postcode": "SL5 5DL",
    "latitude": 51.401787,
    "longitude": -0.65342
  },
{
    "id": 2584095,
    "postcode": "SL5 5DN",
    "latitude": 51.401787,
    "longitude": -0.65342
  },
{
    "id": 2584096,
    "postcode": "SL5 5DP",
    "latitude": 51.401787,
    "longitude": -0.65342
  },
{
    "id": 2584097,
    "postcode": "SL5 5DQ",
    "latitude": 51.401787,
    "longitude": -0.65342
  },
{
    "id": 2584098,
    "postcode": "SL5 5DR",
    "latitude": 51.401787,
    "longitude": -0.65342
  },
{
    "id": 2584099,
    "postcode": "SL5 5DS",
    "latitude": 51.401787,
    "longitude": -0.65342
  },
{
    "id": 2584164,
    "postcode": "SL6 0FE",
    "latitude": 51.566479,
    "longitude": -0.679769
  },
{
    "id": 2584264,
    "postcode": "SL6 7GQ",
    "latitude": 51.525943,
    "longitude": -0.727776
  },
{
    "id": 2584415,
    "postcode": "SL60 1HX",
    "latitude": 51.518545,
    "longitude": -0.714794
  },
{
    "id": 2584416,
    "postcode": "SL60 1HY",
    "latitude": 51.518545,
    "longitude": -0.714794
  },
{
    "id": 2584417,
    "postcode": "SL60 1HZ",
    "latitude": 51.518545,
    "longitude": -0.714794
  },
{
    "id": 2584418,
    "postcode": "SL60 1JA",
    "latitude": 51.518545,
    "longitude": -0.714794
  },
{
    "id": 2584419,
    "postcode": "SL60 1ZZ",
    "latitude": 51.518545,
    "longitude": -0.714794
  },
{
    "id": 2584420,
    "postcode": "SL7 2FP",
    "latitude": 51.571845,
    "longitude": -0.778399
  },
{
    "id": 2584479,
    "postcode": "SL7 9DZ",
    "latitude": 51.570795,
    "longitude": -0.775166
  },
{
    "id": 2584482,
    "postcode": "SL9 1EQ",
    "latitude": 51.587109,
    "longitude": -0.554022
  },
{
    "id": 2584483,
    "postcode": "SL9 1ER",
    "latitude": 51.587109,
    "longitude": -0.554022
  },
{
    "id": 2584484,
    "postcode": "SL9 1ES",
    "latitude": 51.587109,
    "longitude": -0.554022
  }
]



